{"type":"FeatureCollection","note":"Synthetic demo geometry (abstract regions, not real administrative boundaries).","features":[{"type":"Feature","properties":{"name":"Region Alpha","value":10.0,"index":37},"geometry":{"type":"Polygon","coordinates":[[[100,24],[104,24],[102,29],[102,27],[100,24]]]}},{"type":"Feature","properties":{"name":"Region Bravo","value":52.7,"index":74},"geometry":{"type":"Polygon","coordinates":[[[100,30],[104,30],[101,35],[103,32],[100,30]]]}},{"type":"Feature","properties":{"name":"Region Charlie","value":26.2,"index":111},"geometry":{"type":"Polygon","coordinates":[[[100,36],[104,36],[100,41],[104,37],[100,36]]]}},{"type":"Feature","properties":{"name":"Region Delta","value":56.0,"index":148},"geometry":{"type":"Polygon","coordinates":[[[104,24],[108,24],[106,29],[106,24],[104,24]]]}},{"type":"Feature","properties":{"name":"Region Echo","value":41.8,"index":185},"geometry":{"type":"Polygon","coordinates":[[[104,30],[108,30],[105,35],[107,33],[104,30]]]}},{"type":"Feature","properties":{"name":"Region Foxtrot","value":56.9,"index":222},"geometry":{"type":"Polygon","coordinates":[[[104,36],[108,36],[104,41],[108,38],[104,36]]]}},{"type":"Feature","properties":{"name":"Region Golf","value":39.0,"index":259},"geometry":{"type":"Polygon","coordinates":[[[108,24],[112,24],[110,29],[110,25],[108,24]]]}},{"type":"Feature","properties":{"name":"Region Hotel","value":38.7,"index":296},"geometry":{"type":"Polygon","coordinates":[[[108,30],[112,30],[109,35],[111,30],[108,30]]]}},{"type":"Feature","properties":{"name":"Region India","value":51.4,"index":333},"geometry":{"type":"Polygon","coordinates":[[[108,36],[112,36],[108,41],[112,39],[108,36]]]}},{"type":"Feature","properties":{"name":"Region Juliet","value":35.9,"index":370},"geometry":{"type":"Polygon","coordinates":[[[112,24],[116,24],[114,29],[114,26],[112,24]]]}},{"type":"Feature","properties":{"name":"Region Kilo","value":61.5,"index":407},"geometry":{"type":"Polygon","coordinates":[[[112,30],[116,30],[113,35],[115,31],[112,30]]]}},{"type":"Feature","properties":{"name":"Region Lima","value":32.0,"index":444},"geometry":{"type":"Polygon","coordinates":[[[112,36],[116,36],[112,41],[116,36],[112,36]]]}},{"type":"Feature","properties":{"name":"Region Mike","value":52.0,"index":481},"geometry":{"type":"Polygon","coordinates":[[[116,24],[120,24],[118,29],[118,27],[116,24]]]}},{"type":"Feature","properties":{"name":"Region November","value":19.3,"index":518},"geometry":{"type":"Polygon","coordinates":[[[116,30],[120,30],[117,35],[119,32],[116,30]]]}},{"type":"Feature","properties":{"name":"Region Oscar","value":56.9,"index":555},"geometry":{"type":"Polygon","coordinates":[[[116,36],[120,36],[116,41],[120,37],[116,36]]]}},{"type":"Feature","properties":{"name":"Region Papa","value":35.4,"index":592},"geometry":{"type":"Polygon","coordinates":[[[120,24],[124,24],[122,29],[122,24],[120,24]]]}},{"type":"Feature","properties":{"name":"Region Quebec","value":59.2,"index":629},"geometry":{"type":"Polygon","coordinates":[[[120,30],[124,30],[121,35],[123,33],[120,30]]]}},{"type":"Feature","properties":{"name":"Region Romeo","value":33.4,"index":666},"geometry":{"type":"Polygon","coordinates":[[[120,36],[124,36],[120,41],[124,38],[120,36]]]}},{"type":"Feature","properties":{"name":"Route 1"},"geometry":{"type":"LineString","coordinates":[[101,26],[106,32],[113,33],[118,28]]}},{"type":"Feature","properties":{"name":"Stations"},"geometry":{"type":"MultiPoint","coordinates":[[103,28],[110,34],[117,31]]}}]}